LEMUR-2-DEMBITZ         
1 42842U 17042T   26068.47492167  .00020231  00000+0  76561-3 0  9991
2 42842  97.3807 250.9241 0006961  17.1421 343.0051 15.26947128473114
STARLINK-36545          
1 67505U 26012N   26068.08957493  .00021403  00000+0  78488-3 0  9998
2 67505  43.0060 317.4750 0002490 266.3239  93.7328 15.27585194  7670
